QIANFAN-41              
1 62242U 24232F   25201.59489670  .00000078  00000+0  10266-3 0  9999
2 62242  88.9936  55.8795 0012054 248.8911 111.0952 13.50958383 79656
QIANFAN-42              
1 62243U 24232G   25201.56499207  .00000215  00000+0  86742-4 0  9990
2 62243  88.9933  53.9735 0014229 190.7213 169.3679 14.24329841 80706
QIANFAN-43              
1 62244U 24232H   25201.59066407  .00000085  00000+0  11293-3 0  9999
2 62244  88.9941  55.9388 0013535 255.1511 104.8141 13.50951188 48264
QIANFAN-44              
1 62245U 24232J   25201.57838186  .00000073  00000+0  94734-4 0  9998
2 62245  88.9939  55.7530 0011768 251.5732 108.4140 13.50946749 79732
QIANFAN-45              
1 62246U 24232K   25201.54551099  .00000073  00000+0  93968-4 0  9999
2 62246  88.9942  55.8979 0012423 251.4097 108.5705 13.50957014 79653
QIANFAN-46              
1 62247U 24232L   25201.57022260  .00000068  00000+0  87636-4 0  9995
2 62247  88.9939  55.9703 0012463 257.6673 102.3084 13.50959203 79618
QIANFAN-47              
1 62248U 24232M   25201.57425901  .00000071  00000+0  91620-4 0  9997
2 62248  88.9935  55.9087 0012889 256.6938 103.2776 13.50958755 79647
QIANFAN-48              
1 62249U 24232N   25201.61131402  .00000074  00000+0  96928-4 0  9992
2 62249  88.9938  55.9010 0015146 259.6887 100.2557 13.50952328 79657
